{"type": "FeatureCollection", "features": [ {"type": "Feature", "properties": {"norad_id": 60989, "name": "SENTINEL-2C", "group": "resource", "lat": 49.823621998120515, "lon": 57.76857831465779, "alt_km": 783.7980790001611, "timestamp": "2025-12-21T16:47:54.386869+00:00", "meta": {"OBJECT_NAME": "SENTINEL-2C", "OBJECT_ID": "2024-157A", "EPOCH": "2025-12-21T11:31:40.274400", "MEAN_MOTION": 14.30820836, "ECCENTRICITY": 0.0001197, "INCLINATION": 98.5672, "RA_OF_ASC_NODE": 67.8366, "ARG_OF_PERICENTER": 95.324, "MEAN_ANOMALY": 264.8079, "EPHEMERIS_TYPE": 0, "CLASSIFICATION_TYPE": "U", "NORAD_CAT_ID": 60989, "ELEMENT_SET_NO": 999, "REV_AT_EPOCH": 6757, "BSTAR": 6.4988e-05, "MEAN_MOTION_DOT": 1.27e-06, "MEAN_MOTION_DDOT": 0}, "tle": {"line1": "1 60989U 24157A   25355.48032725  .00000127  00000+0  64988-4 0  9990", "line2": "2 60989  98.5672  67.8366 0001197  95.3240 264.8079 14.30820836 67574"}}, "geometry": {"type": "Point", "coordinates": [57.76857831465779, 49.823621998120515]}}, {"type": "Feature", "properties": {"norad_id": 61735, "name": "IONOSFERA-M 1", "group": "resource", "lat": 55.07398549584421, "lon": -147.24747554155545, "alt_km": 810.6497825086626, "timestamp": "2025-12-21T16:47:54.386880+00:00", "meta": {"OBJECT_NAME": "IONOSFERA-M 1", "OBJECT_ID": "2024-199A", "EPOCH": "2025-12-21T13:09:36.740160", "MEAN_MOTION": 14.22715871, "ECCENTRICITY": 5.3e-05, "INCLINATION": 98.7398, "RA_OF_ASC_NODE": 225.3287, "ARG_OF_PERICENTER": 9.9293, "MEAN_ANOMALY": 350.1896, "EPHEMERIS_TYPE": 0, "CLASSIFICATION_TYPE": "U", "NORAD_CAT_ID": 61735, "ELEMENT_SET_NO": 999, "REV_AT_EPOCH": 10244, "BSTAR": 4.2057e-05, "MEAN_MOTION_DOT": 5e-07, "MEAN_MOTION_DDOT": 0}, "tle": {"line1": "1 61735U 24199A   25355.54834190  .00000050  00000+0  42057-4 0  9997", "line2": "2 61735  98.7398 225.3287 0000530   9.9293 350.1896 14.22715871102448"}}, "geometry": {"type": "Point", "coordinates": [-147.24747554155545, 55.07398549584421]}}, {"type": "Feature", "properties": {"norad_id": 61736, "name": "IONOSFERA-M 2", "group": "resource", "lat": -57.83188877963181, "lon": 31.23477843937245, "alt_km": 824.2373701172737, "timestamp": "2025-12-21T16:47:54.386890+00:00", "meta": {"OBJECT_NAME": "IONOSFERA-M 2", "OBJECT_ID": "2024-199B", "EPOCH": "2025-12-21T13:59:29.107392", "MEAN_MOTION": 14.22718046, "ECCENTRICITY": 0.0001816, "INCLINATION": 98.7396, "RA_OF_ASC_NODE": 225.2755, "ARG_OF_PERICENTER": 99.3005, "MEAN_ANOMALY": 260.8378, "EPHEMERIS_TYPE": 0, "CLASSIFICATION_TYPE": "U", "NORAD_CAT_ID": 61736, "ELEMENT_SET_NO": 999, "REV_AT_EPOCH": 10557, "BSTAR": 4.3528e-05, "MEAN_MOTION_DOT": 5.3e-07, "MEAN_MOTION_DDOT": 0}, "tle": {"line1": "1 61736U 24199B   25355.58297578  .00000053  00000+0  43528-4 0  9992", "line2": "2 61736  98.7396 225.2755 0001816  99.3005 260.8378 14.22718046105574"}}, "geometry": {"type": "Point", "coordinates": [31.23477843937245, -57.83188877963181]}}, {"type": "Feature", "properties": {"norad_id": 63772, "name": "BIOMASS", "group": "resource", "lat": 72.39967195222177, "lon": 154.0131675637073, "alt_km": 661.1770604086487, "timestamp": "2025-12-21T16:47:54.386900+00:00", "meta": {"OBJECT_NAME": "BIOMASS", "OBJECT_ID": "2025-090A", "EPOCH": "2025-12-21T06:38:34.325088", "MEAN_MOTION": 14.67533283, "ECCENTRICITY": 0.0001162, "INCLINATION": 98.0694, "RA_OF_ASC_NODE": 180.1621, "ARG_OF_PERICENTER": 85.4071, "MEAN_ANOMALY": 274.7266, "EPHEMERIS_TYPE": 0, "CLASSIFICATION_TYPE": "U", "NORAD_CAT_ID": 63772, "ELEMENT_SET_NO": 999, "REV_AT_EPOCH": 3459, "BSTAR": 0.000187, "MEAN_MOTION_DOT": 1.012e-05, "MEAN_MOTION_DDOT": 0}, "tle": {"line1": "1 63772U 25090A   25355.27678617  .00001012  00000+0  18700-3 0  9997", "line2": "2 63772  98.0694 180.1621 0001162  85.4071 274.7266 14.67533283 34594"}}, "geometry": {"type": "Point", "coordinates": [154.0131675637073, 72.39967195222177]}}, {"type": "Feature", "properties": {"norad_id": 64694, "name": "GOSAT-GW (IBUKI GW)", "group": "resource", "lat": -73.32832519039562, "lon": -40.77201079494108, "alt_km": 677.1181955806087, "timestamp": "2025-12-21T16:47:54.386910+00:00", "meta": {"OBJECT_NAME": "GOSAT-GW (IBUKI GW)", "OBJECT_ID": "2025-141A", "EPOCH": "2025-12-21T12:13:56.438400", "MEAN_MOTION": 14.67561065, "ECCENTRICITY": 0.0001438, "INCLINATION": 98.0437, "RA_OF_ASC_NODE": 290.8639, "ARG_OF_PERICENTER": 84.3774, "MEAN_ANOMALY": 275.7595, "EPHEMERIS_TYPE": 0, "CLASSIFICATION_TYPE": "U", "NORAD_CAT_ID": 64694, "ELEMENT_SET_NO": 999, "REV_AT_EPOCH": 2578, "BSTAR": 0.00011928, "MEAN_MOTION_DOT": 6.29e-06, "MEAN_MOTION_DDOT": 0}, "tle": {"line1": "1 64694U 25141A   25355.50968100  .00000629  00000+0  11928-3 0  9991", "line2": "2 64694  98.0437 290.8639 0001438  84.3774 275.7595 14.67561065 25781"}}, "geometry": {"type": "Point", "coordinates": [-40.77201079494108, -73.32832519039562]}}, {"type": "Feature", "properties": {"norad_id": 64876, "name": "IONOSFERA-M 3", "group": "resource", "lat": -60.77037465784372, "lon": 121.66081093038657, "alt_km": 828.9705119545133, "timestamp": "2025-12-21T16:47:54.386921+00:00", "meta": {"OBJECT_NAME": "IONOSFERA-M 3", "OBJECT_ID": "2025-155A", "EPOCH": "2025-12-21T12:17:06.508896", "MEAN_MOTION": 14.21442995, "ECCENTRICITY": 0.0001983, "INCLINATION": 98.5795, "RA_OF_ASC_NODE": 317.1301, "ARG_OF_PERICENTER": 45.7595, "MEAN_ANOMALY": 314.3745, "EPHEMERIS_TYPE": 0, "CLASSIFICATION_TYPE": "U", "NORAD_CAT_ID": 64876, "ELEMENT_SET_NO": 999, "REV_AT_EPOCH": 2116, "BSTAR": 4.137e-05, "MEAN_MOTION_DOT": 4.8e-07, "MEAN_MOTION_DDOT": 0}, "tle": {"line1": "1 64876U 25155A   25355.51188089  .00000048  00000+0  41370-4 0  9999", "line2": "2 64876  98.5795 317.1301 0001983  45.7595 314.3745 14.21442995 21166"}}, "geometry": {"type": "Point", "coordinates": [121.66081093038657, -60.77037465784372]}}, {"type": "Feature", "properties": {"norad_id": 64877, "name": "IONOSFERA-M 4", "group": "resource", "lat": 61.33380706152008, "lon": -58.7970121851165, "alt_km": 813.4875444601457, "timestamp": "2025-12-21T16:47:54.386930+00:00", "meta": {"OBJECT_NAME": "IONOSFERA-M 4", "OBJECT_ID": "2025-155B", "EPOCH": "2025-12-21T11:26:13.869888", "MEAN_MOTION": 14.21444119, "ECCENTRICITY": 0.000139, "INCLINATION": 98.5794, "RA_OF_ASC_NODE": 317.0152, "ARG_OF_PERICENTER": 54.9702, "MEAN_ANOMALY": 305.1605, "EPHEMERIS_TYPE": 0, "CLASSIFICATION_TYPE": "U", "NORAD_CAT_ID": 64877, "ELEMENT_SET_NO": 999, "REV_AT_EPOCH": 2115, "BSTAR": 3.8406e-05, "MEAN_MOTION_DOT": 4.1e-07, "MEAN_MOTION_DDOT": 0}, "tle": {"line1": "1 64877U 25155B   25355.47654942  .00000041  00000+0  38406-4 0  9990", "line2": "2 64877  98.5794 317.0152 0001390  54.9702 305.1605 14.21444119 21155"}}, "geometry": {"type": "Point", "coordinates": [-58.7970121851165, 61.33380706152008]}}, {"type": "Feature", "properties": {"norad_id": 64899, "name": "MICROCARB", "group": "resource", "lat": 46.51623010029531, "lon": 62.37220654237482, "alt_km": 646.2698042088396, "timestamp": "2025-12-21T16:47:54.386941+00:00", "meta": {"OBJECT_NAME": "MICROCARB", "OBJECT_ID": "2025-156A", "EPOCH": "2025-12-21T05:09:56.513088", "MEAN_MOTION": 14.72069919, "ECCENTRICITY": 0.0017535, "INCLINATION": 98.0016, "RA_OF_ASC_NODE": 70.4245, "ARG_OF_PERICENTER": 119.2699, "MEAN_ANOMALY": 241.0264, "EPHEMERIS_TYPE": 0, "CLASSIFICATION_TYPE": "U", "NORAD_CAT_ID": 64899, "ELEMENT_SET_NO": 999, "REV_AT_EPOCH": 2178, "BSTAR": 9.7829e-05, "MEAN_MOTION_DOT": 5.67e-06, "MEAN_MOTION_DDOT": 0}, "tle": {"line1": "1 64899U 25156A   25355.21523742  .00000567  00000+0  97829-4 0  9997", "line2": "2 64899  98.0016  70.4245 0017535 119.2699 241.0264 14.72069919 21787"}}, "geometry": {"type": "Point", "coordinates": [62.37220654237482, 46.51623010029531]}}, {"type": "Feature", "properties": {"norad_id": 64900, "name": "CO3D 3", "group": "resource", "lat": -18.94119959942805, "lon": -110.62956675070295, "alt_km": 510.8375724159141, "timestamp": "2025-12-21T16:47:54.386951+00:00", "meta": {"OBJECT_NAME": "CO3D 3", "OBJECT_ID": "2025-156B", "EPOCH": "2025-12-21T11:11:12.177888", "MEAN_MOTION": 15.2021216, "ECCENTRICITY": 0.0001338, "INCLINATION": 97.4342, "RA_OF_ASC_NODE": 71.7083, "ARG_OF_PERICENTER": 79.7296, "MEAN_ANOMALY": 280.409, "EPHEMERIS_TYPE": 0, "CLASSIFICATION_TYPE": "U", "NORAD_CAT_ID": 64900, "ELEMENT_SET_NO": 999, "REV_AT_EPOCH": 2253, "BSTAR": 0.00020907, "MEAN_MOTION_DOT": 4.462e-05, "MEAN_MOTION_DDOT": 0}, "tle": {"line1": "1 64900U 25156B   25355.46611317  .00004462  00000+0  20907-3 0  9993", "line2": "2 64900  97.4342  71.7083 0001338  79.7296 280.4090 15.20212160 22536"}}, "geometry": {"type": "Point", "coordinates": [-110.62956675070295, -18.94119959942805]}}, {"type": "Feature", "properties": {"norad_id": 64901, "name": "CO3D 4", "group": "resource", "lat": -18.06255087900754, "lon": -110.50169285336057, "alt_km": 509.58261481656973, "timestamp": "2025-12-21T16:47:54.386961+00:00", "meta": {"OBJECT_NAME": "CO3D 4", "OBJECT_ID": "2025-156C", "EPOCH": "2025-12-21T11:11:25.792800", "MEAN_MOTION": 15.20202478, "ECCENTRICITY": 0.0001269, "INCLINATION": 97.4341, "RA_OF_ASC_NODE": 71.7086, "ARG_OF_PERICENTER": 167.1627, "MEAN_ANOMALY": 192.9641, "EPHEMERIS_TYPE": 0, "CLASSIFICATION_TYPE": "U", "NORAD_CAT_ID": 64901, "ELEMENT_SET_NO": 999, "REV_AT_EPOCH": 2253, "BSTAR": 0.00020516, "MEAN_MOTION_DOT": 4.376e-05, "MEAN_MOTION_DDOT": 0}, "tle": {"line1": "1 64901U 25156C   25355.46627075  .00004376  00000+0  20516-3 0  9992", "line2": "2 64901  97.4341  71.7086 0001269 167.1627 192.9641 15.20202478 22532"}}, "geometry": {"type": "Point", "coordinates": [-110.50169285336057, -18.06255087900754]}}]}